[
    {
        "Altitude(m)": 622200.0907721487,
        "Argument of Periapsis(deg)": 0.0,
        "Eccentricity": 0.0,
        "Inclination(deg)": 60.0,
        "Latitude(deg)": -52.162492884193654,
        "Longitude(deg)": 42.360868420714155,
        "Mean Anomaly(deg)": -65.45449999999995,
        "RAAN(deg)": 190.0,
        "Satellite Name": "Test1 854",
        "Satellite Number": 854,
        "Semi-Major Axis(m)": 6980739.136638005,
        "Time(s)": 0
    },
    {
        "Altitude(m)": 622058.2580310914,
        "Argument of Periapsis(deg)": 0.00010418945913296404,
        "Eccentricity": 0.0,
        "Inclination(deg)": 60.0,
        "Latitude(deg)": -51.799241325779576,
        "Longitude(deg)": 43.128924020942605,
        "Mean Anomaly(deg)": -64.8343938545381,
        "RAAN(deg)": 189.99957995086027,
        "Satellite Name": "Test1 854",
        "Satellite Number": 854,
        "Semi-Major Axis(m)": 6980739.136638005,
        "Time(s)": 10
    }
]